{"type": "FeatureCollection", "features": [ {"type": "Feature", "properties": {"norad_id": 34529, "name": "IRIDIUM 33 DEB", "group": "iridium-33-debris", "lat": 24.654274910878723, "lon": -142.851254412027, "alt_km": 754.193060134292, "timestamp": "2025-12-04T17:48:40.549734+00:00", "meta": {"OBJECT_NAME": "IRIDIUM 33 DEB", "OBJECT_ID": "1997-051HW", "EPOCH": "2025-12-04T03:45:24.303456", "MEAN_MOTION": 14.40605404, "ECCENTRICITY": 0.00037657, "INCLINATION": 86.3648, "RA_OF_ASC_NODE": 39.0703, "ARG_OF_PERICENTER": 207.724, "MEAN_ANOMALY": 152.3759, "EPHEMERIS_TYPE": 0, "CLASSIFICATION_TYPE": "U", "NORAD_CAT_ID": 34529, "ELEMENT_SET_NO": 999, "REV_AT_EPOCH": 88018, "BSTAR": 0.00023195144, "MEAN_MOTION_DOT": 7.59e-06, "MEAN_MOTION_DDOT": 0}, "tle": {"line1": "1 34529U 97051HW  25338.15653129  .00000759  00000+0  23195-3 0  9991", "line2": "2 34529  86.3648  39.0703 0003765 207.7240 152.3759 14.40605404880180"}}, "geometry": {"type": "Point", "coordinates": [-142.851254412027, 24.654274910878723]}}, {"type": "Feature", "properties": {"norad_id": 34538, "name": "IRIDIUM 33 DEB", "group": "iridium-33-debris", "lat": -65.35964069050824, "lon": 0.9007252819824226, "alt_km": 745.3873481061664, "timestamp": "2025-12-04T17:48:40.549745+00:00", "meta": {"OBJECT_NAME": "IRIDIUM 33 DEB", "OBJECT_ID": "1997-051JF", "EPOCH": "2025-12-04T07:02:51.254592", "MEAN_MOTION": 14.42571124, "ECCENTRICITY": 0.00338519, "INCLINATION": 86.278, "RA_OF_ASC_NODE": 9.2557, "ARG_OF_PERICENTER": 356.4669, "MEAN_ANOMALY": 130.6671, "EPHEMERIS_TYPE": 0, "CLASSIFICATION_TYPE": "U", "NORAD_CAT_ID": 34538, "ELEMENT_SET_NO": 999, "REV_AT_EPOCH": 87634, "BSTAR": 0.0020099662, "MEAN_MOTION_DOT": 6.735e-05, "MEAN_MOTION_DDOT": 0}, "tle": {"line1": "1 34538U 97051JF  25338.29364878  .00006735  00000+0  20100-2 0  9998", "line2": "2 34538  86.2780   9.2557 0033851 356.4669 130.6671 14.42571124876346"}}, "geometry": {"type": "Point", "coordinates": [0.9007252819824226, -65.35964069050824]}}, {"type": "Feature", "properties": {"norad_id": 34540, "name": "IRIDIUM 33 DEB", "group": "iridium-33-debris", "lat": 43.60943842171201, "lon": 127.737566400258, "alt_km": 635.2167510836052, "timestamp": "2025-12-04T17:48:40.549756+00:00", "meta": {"OBJECT_NAME": "IRIDIUM 33 DEB", "OBJECT_ID": "1997-051JH", "EPOCH": "2025-12-03T05:26:21.211296", "MEAN_MOTION": 14.74981692, "ECCENTRICITY": 0.0014801, "INCLINATION": 86.3092, "RA_OF_ASC_NODE": 311.9555, "ARG_OF_PERICENTER": 194.145, "MEAN_ANOMALY": 180.1243, "EPHEMERIS_TYPE": 0, "CLASSIFICATION_TYPE": "U", "NORAD_CAT_ID": 34540, "ELEMENT_SET_NO": 999, "REV_AT_EPOCH": 88881, "BSTAR": 0.0021818, "MEAN_MOTION_DOT": 0.00014731, "MEAN_MOTION_DDOT": 0}, "tle": {"line1": "1 34540U 97051JH  25337.22663439  .00014731  00000+0  21818-2 0  9990", "line2": "2 34540  86.3092 311.9555 0014801 194.1450 180.1243 14.74981692888816"}}, "geometry": {"type": "Point", "coordinates": [127.737566400258, 43.60943842171201]}}, {"type": "Feature", "properties": {"norad_id": 34648, "name": "IRIDIUM 33 DEB", "group": "iridium-33-debris", "lat": -40.51589870346663, "lon": -77.9183393320202, "alt_km": 727.7776923013971, "timestamp": "2025-12-04T17:48:40.549767+00:00", "meta": {"OBJECT_NAME": "IRIDIUM 33 DEB", "OBJECT_ID": "1997-051JZ", "EPOCH": "2025-12-01T03:11:38.418720", "MEAN_MOTION": 14.1087899, "ECCENTRICITY": 0.01868529, "INCLINATION": 86.3903, "RA_OF_ASC_NODE": 286.6295, "ARG_OF_PERICENTER": 334.6513, "MEAN_ANOMALY": 24.5588, "EPHEMERIS_TYPE": 0, "CLASSIFICATION_TYPE": "U", "NORAD_CAT_ID": 34648, "ELEMENT_SET_NO": 999, "REV_AT_EPOCH": 84797, "BSTAR": 0.0079356223, "MEAN_MOTION_DOT": 0.00016788, "MEAN_MOTION_DDOT": 0}, "tle": {"line1": "1 34648U 97051JZ  25335.13308355  .00016788  00000+0  79356-2 0  9994", "line2": "2 34648  86.3903 286.6295 0186852 334.6513  24.5588 14.10878990847973"}}, "geometry": {"type": "Point", "coordinates": [-77.9183393320202, -40.51589870346663]}}, {"type": "Feature", "properties": {"norad_id": 34651, "name": "IRIDIUM 33 DEB", "group": "iridium-33-debris", "lat": -35.13644379306983, "lon": 141.35492439463616, "alt_km": 821.1705430933107, "timestamp": "2025-12-04T17:48:40.549777+00:00", "meta": {"OBJECT_NAME": "IRIDIUM 33 DEB", "OBJECT_ID": "1997-051KC", "EPOCH": "2025-12-04T04:30:04.689792", "MEAN_MOTION": 14.2558791, "ECCENTRICITY": 0.0141872, "INCLINATION": 86.2824, "RA_OF_ASC_NODE": 144.2134, "ARG_OF_PERICENTER": 231.1309, "MEAN_ANOMALY": 127.7156, "EPHEMERIS_TYPE": 0, "CLASSIFICATION_TYPE": "U", "NORAD_CAT_ID": 34651, "ELEMENT_SET_NO": 999, "REV_AT_EPOCH": 85774, "BSTAR": 0.0069877343, "MEAN_MOTION_DOT": 0.00018427, "MEAN_MOTION_DDOT": 0}, "tle": {"line1": "1 34651U 97051KC  25338.18755428  .00018427  00000+0  69877-2 0  9992", "line2": "2 34651  86.2824 144.2134 0141872 231.1309 127.7156 14.25587910857744"}}, "geometry": {"type": "Point", "coordinates": [141.35492439463616, -35.13644379306983]}}, {"type": "Feature", "properties": {"norad_id": 34652, "name": "IRIDIUM 33 DEB", "group": "iridium-33-debris", "lat": 51.20180233060922, "lon": -11.858908668534369, "alt_km": 680.3283708483032, "timestamp": "2025-12-04T17:48:40.549788+00:00", "meta": {"OBJECT_NAME": "IRIDIUM 33 DEB", "OBJECT_ID": "1997-051KD", "EPOCH": "2025-12-02T12:03:44.445600", "MEAN_MOTION": 14.61898676, "ECCENTRICITY": 0.00270627, "INCLINATION": 86.3312, "RA_OF_ASC_NODE": 344.5601, "ARG_OF_PERICENTER": 334.9096, "MEAN_ANOMALY": 177.4047, "EPHEMERIS_TYPE": 0, "CLASSIFICATION_TYPE": "U", "NORAD_CAT_ID": 34652, "ELEMENT_SET_NO": 999, "REV_AT_EPOCH": 88334, "BSTAR": 0.0012168376, "MEAN_MOTION_DOT": 6.139e-05, "MEAN_MOTION_DDOT": 0}, "tle": {"line1": "1 34652U 97051KD  25336.50259775  .00006139  00000+0  12168-2 0  9999", "line2": "2 34652  86.3312 344.5601 0027062 334.9096 177.4047 14.61898676883341"}}, "geometry": {"type": "Point", "coordinates": [-11.858908668534369, 51.20180233060922]}}, {"type": "Feature", "properties": {"norad_id": 34690, "name": "IRIDIUM 33 DEB", "group": "iridium-33-debris", "lat": 66.45593539150576, "lon": -147.88843325468073, "alt_km": 698.7341022258715, "timestamp": "2025-12-04T17:48:40.549798+00:00", "meta": {"OBJECT_NAME": "IRIDIUM 33 DEB", "OBJECT_ID": "1997-051KM", "EPOCH": "2025-12-03T11:52:36.056064", "MEAN_MOTION": 14.55037039, "ECCENTRICITY": 0.0011766, "INCLINATION": 86.3793, "RA_OF_ASC_NODE": 41.009, "ARG_OF_PERICENTER": 56.8306, "MEAN_ANOMALY": 7.0908, "EPHEMERIS_TYPE": 0, "CLASSIFICATION_TYPE": "U", "NORAD_CAT_ID": 34690, "ELEMENT_SET_NO": 999, "REV_AT_EPOCH": 87960, "BSTAR": 0.00070543794, "MEAN_MOTION_DOT": 3.062e-05, "MEAN_MOTION_DDOT": 0}, "tle": {"line1": "1 34690U 97051KM  25337.49486176  .00003062  00000+0  70544-3 0  9992", "line2": "2 34690  86.3793  41.0090 0011766  56.8306   7.0908 14.55037039879604"}}, "geometry": {"type": "Point", "coordinates": [-147.88843325468073, 66.45593539150576]}}, {"type": "Feature", "properties": {"norad_id": 34693, "name": "IRIDIUM 33 DEB", "group": "iridium-33-debris", "lat": -85.10295935810264, "lon": 176.75339159447657, "alt_km": 508.3041792073782, "timestamp": "2025-12-04T17:48:40.549809+00:00", "meta": {"OBJECT_NAME": "IRIDIUM 33 DEB", "OBJECT_ID": "1997-051KQ", "EPOCH": "2025-12-03T09:49:19.549920", "MEAN_MOTION": 15.24618598, "ECCENTRICITY": 0.0016087, "INCLINATION": 86.3049, "RA_OF_ASC_NODE": 308.4487, "ARG_OF_PERICENTER": 66.5202, "MEAN_ANOMALY": 88.8029, "EPHEMERIS_TYPE": 0, "CLASSIFICATION_TYPE": "U", "NORAD_CAT_ID": 34693, "ELEMENT_SET_NO": 999, "REV_AT_EPOCH": 88772, "BSTAR": 0.0053871746, "MEAN_MOTION_DOT": 0.00135539, "MEAN_MOTION_DDOT": 0}, "tle": {"line1": "1 34693U 97051KQ  25337.40925405  .00135539  00000+0  53872-2 0  9998", "line2": "2 34693  86.3049 308.4487 0016087  66.5202  88.8029 15.24618598887720"}}, "geometry": {"type": "Point", "coordinates": [176.75339159447657, -85.10295935810264]}}, {"type": "Feature", "properties": {"norad_id": 34696, "name": "IRIDIUM 33 DEB", "group": "iridium-33-debris", "lat": -26.67064601253585, "lon": 29.321028194322547, "alt_km": 724.5668788863313, "timestamp": "2025-12-04T17:48:40.549819+00:00", "meta": {"OBJECT_NAME": "IRIDIUM 33 DEB", "OBJECT_ID": "1997-051KT", "EPOCH": "2025-12-03T04:28:11.100576", "MEAN_MOTION": 14.64210204, "ECCENTRICITY": 0.00749062, "INCLINATION": 86.1858, "RA_OF_ASC_NODE": 31.9639, "ARG_OF_PERICENTER": 199.8052, "MEAN_ANOMALY": 216.5408, "EPHEMERIS_TYPE": 0, "CLASSIFICATION_TYPE": "U", "NORAD_CAT_ID": 34696, "ELEMENT_SET_NO": 999, "REV_AT_EPOCH": 86533, "BSTAR": 0.0085473115, "MEAN_MOTION_DOT": 0.00047152, "MEAN_MOTION_DDOT": 0}, "tle": {"line1": "1 34696U 97051KT  25337.18623959  .00047152  00000+0  85473-2 0  9990", "line2": "2 34696  86.1858  31.9639 0074906 199.8052 216.5408 14.64210204865332"}}, "geometry": {"type": "Point", "coordinates": [29.321028194322547, -26.67064601253585]}}, {"type": "Feature", "properties": {"norad_id": 34765, "name": "IRIDIUM 33 DEB", "group": "iridium-33-debris", "lat": -22.170703752860764, "lon": -142.31208830551483, "alt_km": 754.4493003670868, "timestamp": "2025-12-04T17:48:40.549830+00:00", "meta": {"OBJECT_NAME": "IRIDIUM 33 DEB", "OBJECT_ID": "1997-051LJ", "EPOCH": "2025-12-02T05:08:41.186976", "MEAN_MOTION": 14.40418764, "ECCENTRICITY": 0.00145508, "INCLINATION": 86.3401, "RA_OF_ASC_NODE": 37.2773, "ARG_OF_PERICENTER": 249.3549, "MEAN_ANOMALY": 173.3707, "EPHEMERIS_TYPE": 0, "CLASSIFICATION_TYPE": "U", "NORAD_CAT_ID": 34765, "ELEMENT_SET_NO": 999, "REV_AT_EPOCH": 87462, "BSTAR": 0.00049787542, "MEAN_MOTION_DOT": 1.602e-05, "MEAN_MOTION_DDOT": 0}, "tle": {"line1": "1 34765U 97051LJ  25336.21436559  .00001602  00000+0  49788-3 0  9998", "line2": "2 34765  86.3401  37.2773 0014550 249.3549 173.3707 14.40418764874623"}}, "geometry": {"type": "Point", "coordinates": [-142.31208830551483, -22.170703752860764]}}]}